CCSDS_OMM_VERS = 2.0
CREATION_DATE  = 
ORIGINATOR     = 

OBJECT_NAME    = STARLINK-35322
OBJECT_ID      = 2025-253P
CENTER_NAME    = EARTH
REF_FRAME      = TEME
TIME_SYSTEM    = UTC
MEAN_ELEMENT_THEORY = SGP/SGP4

EPOCH          = 2025-11-30T13:36:23.520960
MEAN_MOTION    = 15.50591411
ECCENTRICITY   = .00010796
INCLINATION    = 43.0002
RA_OF_ASC_NODE = 55.8793
ARG_OF_PERICENTER = 277.4614
MEAN_ANOMALY   = 82.6124

EPHEMERIS_TYPE = 0
CLASSIFICATION_TYPE = U
NORAD_CAT_ID   = 66332
ELEMENT_SET_NO = 999
REV_AT_EPOCH   = 504
BSTAR          = .15886625E-2
MEAN_MOTION_DOT = .94025E-3
MEAN_MOTION_DDOT = 0

CCSDS_OMM_VERS = 2.0
CREATION_DATE  = 
ORIGINATOR     = 

OBJECT_NAME    = STARLINK-35400
OBJECT_ID      = 2025-253Q
CENTER_NAME    = EARTH
REF_FRAME      = TEME
TIME_SYSTEM    = UTC
MEAN_ELEMENT_THEORY = SGP/SGP4

EPOCH          = 2025-11-30T13:34:24.817728
MEAN_MOTION    = 15.50605163
ECCENTRICITY   = .00013254
INCLINATION    = 43.0002
RA_OF_ASC_NODE = 55.8675
ARG_OF_PERICENTER = 267.8366
MEAN_ANOMALY   = 92.2342

EPHEMERIS_TYPE = 0
CLASSIFICATION_TYPE = U
NORAD_CAT_ID   = 66333
ELEMENT_SET_NO = 999
REV_AT_EPOCH   = 504
BSTAR          = .19211852E-2
MEAN_MOTION_DOT = .114128E-2
MEAN_MOTION_DDOT = 0

CCSDS_OMM_VERS = 2.0
CREATION_DATE  = 
ORIGINATOR     = 

OBJECT_NAME    = STARLINK-35407
OBJECT_ID      = 2025-253R
CENTER_NAME    = EARTH
REF_FRAME      = TEME
TIME_SYSTEM    = UTC
MEAN_ELEMENT_THEORY = SGP/SGP4

EPOCH          = 2025-11-30T15:08:39.129216
MEAN_MOTION    = 15.50603633
ECCENTRICITY   = .00014448
INCLINATION    = 43.0002
RA_OF_ASC_NODE = 55.5009
ARG_OF_PERICENTER = 276.8399
MEAN_ANOMALY   = 83.2297

EPHEMERIS_TYPE = 0
CLASSIFICATION_TYPE = U
NORAD_CAT_ID   = 66334
ELEMENT_SET_NO = 999
REV_AT_EPOCH   = 505
BSTAR          = .18660115E-2
MEAN_MOTION_DOT = .110787E-2
MEAN_MOTION_DDOT = 0

CCSDS_OMM_VERS = 2.0
CREATION_DATE  = 
ORIGINATOR     = 

OBJECT_NAME    = STARLINK-35417
OBJECT_ID      = 2025-253S
CENTER_NAME    = EARTH
REF_FRAME      = TEME
TIME_SYSTEM    = UTC
MEAN_ELEMENT_THEORY = SGP/SGP4

EPOCH          = 2025-11-30T14:00:01.999872
MEAN_MOTION    = 15.40649204
ECCENTRICITY   = .00012887
INCLINATION    = 43.0003
RA_OF_ASC_NODE = 55.8636
ARG_OF_PERICENTER = 286.9467
MEAN_ANOMALY   = 132.7996

EPHEMERIS_TYPE = 0
CLASSIFICATION_TYPE = U
NORAD_CAT_ID   = 66335
ELEMENT_SET_NO = 999
REV_AT_EPOCH   = 497
BSTAR          = .17059708E-2
MEAN_MOTION_DOT = .71509E-3
MEAN_MOTION_DDOT = 0

CCSDS_OMM_VERS = 2.0
CREATION_DATE  = 
ORIGINATOR     = 

OBJECT_NAME    = STARLINK-35404
OBJECT_ID      = 2025-253T
CENTER_NAME    = EARTH
REF_FRAME      = TEME
TIME_SYSTEM    = UTC
MEAN_ELEMENT_THEORY = SGP/SGP4

EPOCH          = 2025-11-30T15:06:11.090592
MEAN_MOTION    = 15.50591172
ECCENTRICITY   = .00014681
INCLINATION    = 43.0001
RA_OF_ASC_NODE = 55.4863
ARG_OF_PERICENTER = 276.5617
MEAN_ANOMALY   = 83.5076

EPHEMERIS_TYPE = 0
CLASSIFICATION_TYPE = U
NORAD_CAT_ID   = 66336
ELEMENT_SET_NO = 999
REV_AT_EPOCH   = 505
BSTAR          = .16844047E-2
MEAN_MOTION_DOT = .99786E-3
MEAN_MOTION_DDOT = 0

CCSDS_OMM_VERS = 2.0
CREATION_DATE  = 
ORIGINATOR     = 

OBJECT_NAME    = STARLINK-34783
OBJECT_ID      = 2025-253U
CENTER_NAME    = EARTH
REF_FRAME      = TEME
TIME_SYSTEM    = UTC
MEAN_ELEMENT_THEORY = SGP/SGP4

EPOCH          = 2025-11-30T14:00:01.999872
MEAN_MOTION    = 15.42316508
ECCENTRICITY   = .00017129
INCLINATION    = 43.0004
RA_OF_ASC_NODE = 55.8059
ARG_OF_PERICENTER = 276.6994
MEAN_ANOMALY   = 166.8995

EPHEMERIS_TYPE = 0
CLASSIFICATION_TYPE = U
NORAD_CAT_ID   = 66337
ELEMENT_SET_NO = 999
REV_AT_EPOCH   = 502
BSTAR          = -.52279226E-1
MEAN_MOTION_DOT = -.204786E-1
MEAN_MOTION_DDOT = 0

CCSDS_OMM_VERS = 2.0
CREATION_DATE  = 
ORIGINATOR     = 

OBJECT_NAME    = STARLINK-35477
OBJECT_ID      = 2025-253V
CENTER_NAME    = EARTH
REF_FRAME      = TEME
TIME_SYSTEM    = UTC
MEAN_ELEMENT_THEORY = SGP/SGP4

EPOCH          = 2025-11-30T14:00:01.999872
MEAN_MOTION    = 15.40624444
ECCENTRICITY   = .00004495
INCLINATION    = 43.0000
RA_OF_ASC_NODE = 55.8938
ARG_OF_PERICENTER = 287.1069
MEAN_ANOMALY   = 120.1839

EPHEMERIS_TYPE = 0
CLASSIFICATION_TYPE = U
NORAD_CAT_ID   = 66338
ELEMENT_SET_NO = 999
REV_AT_EPOCH   = 507
BSTAR          = .15040254E-2
MEAN_MOTION_DOT = .62884E-3
MEAN_MOTION_DDOT = 0

CCSDS_OMM_VERS = 2.0
CREATION_DATE  = 
ORIGINATOR     = 

OBJECT_NAME    = STARLINK-35443
OBJECT_ID      = 2025-253W
CENTER_NAME    = EARTH
REF_FRAME      = TEME
TIME_SYSTEM    = UTC
MEAN_ELEMENT_THEORY = SGP/SGP4

EPOCH          = 2025-11-30T13:29:57.935040
MEAN_MOTION    = 15.50599296
ECCENTRICITY   = .00016416
INCLINATION    = 43.0000
RA_OF_ASC_NODE = 55.8425
ARG_OF_PERICENTER = 282.2617
MEAN_ANOMALY   = 77.8060

EPHEMERIS_TYPE = 0
CLASSIFICATION_TYPE = U
NORAD_CAT_ID   = 66339
ELEMENT_SET_NO = 999
REV_AT_EPOCH   = 504
BSTAR          = .12824345E-2
MEAN_MOTION_DOT = .75679E-3
MEAN_MOTION_DDOT = 0

CCSDS_OMM_VERS = 2.0
CREATION_DATE  = 
ORIGINATOR     = 

OBJECT_NAME    = STARLINK-35218
OBJECT_ID      = 2025-253X
CENTER_NAME    = EARTH
REF_FRAME      = TEME
TIME_SYSTEM    = UTC
MEAN_ELEMENT_THEORY = SGP/SGP4

EPOCH          = 2025-11-30T15:05:41.419968
MEAN_MOTION    = 15.50594857
ECCENTRICITY   = .00015496
INCLINATION    = 43.0002
RA_OF_ASC_NODE = 55.4833
ARG_OF_PERICENTER = 276.0201
MEAN_ANOMALY   = 84.0482

EPHEMERIS_TYPE = 0
CLASSIFICATION_TYPE = U
NORAD_CAT_ID   = 66340
ELEMENT_SET_NO = 999
REV_AT_EPOCH   = 505
BSTAR          = .15098136E-2
MEAN_MOTION_DOT = .89299E-3
MEAN_MOTION_DDOT = 0

CCSDS_OMM_VERS = 2.0
CREATION_DATE  = 
ORIGINATOR     = 

OBJECT_NAME    = STARLINK-35522
OBJECT_ID      = 2025-253Y
CENTER_NAME    = EARTH
REF_FRAME      = TEME
TIME_SYSTEM    = UTC
MEAN_ELEMENT_THEORY = SGP/SGP4

EPOCH          = 2025-11-30T13:34:54.315552
MEAN_MOTION    = 15.50617906
ECCENTRICITY   = .00011138
INCLINATION    = 42.9998
RA_OF_ASC_NODE = 55.8723
ARG_OF_PERICENTER = 266.4147
MEAN_ANOMALY   = 93.6585

EPHEMERIS_TYPE = 0
CLASSIFICATION_TYPE = U
NORAD_CAT_ID   = 66341
ELEMENT_SET_NO = 999
REV_AT_EPOCH   = 504
BSTAR          = .20440437E-2
MEAN_MOTION_DOT = .121621E-2
MEAN_MOTION_DDOT = 0

CCSDS_OMM_VERS = 2.0
CREATION_DATE  = 
ORIGINATOR     = 

OBJECT_NAME    = STARLINK-35535
OBJECT_ID      = 2025-253Z
CENTER_NAME    = EARTH
REF_FRAME      = TEME
TIME_SYSTEM    = UTC
MEAN_ELEMENT_THEORY = SGP/SGP4

EPOCH          = 2025-11-30T15:03:23.032224
MEAN_MOTION    = 15.49899328
ECCENTRICITY   = .00006281
INCLINATION    = 42.9999
RA_OF_ASC_NODE = 55.4687
ARG_OF_PERICENTER = 348.9889
MEAN_ANOMALY   = 11.0957

EPHEMERIS_TYPE = 0
CLASSIFICATION_TYPE = U
NORAD_CAT_ID   = 66342
ELEMENT_SET_NO = 999
REV_AT_EPOCH   = 505
BSTAR          = -.51140362E-2
MEAN_MOTION_DOT = -.282824E-2
MEAN_MOTION_DDOT = 0

CCSDS_OMM_VERS = 2.0
CREATION_DATE  = 
ORIGINATOR     = 

OBJECT_NAME    = STARLINK-35467
OBJECT_ID      = 2025-253AA
CENTER_NAME    = EARTH
REF_FRAME      = TEME
TIME_SYSTEM    = UTC
MEAN_ELEMENT_THEORY = SGP/SGP4

EPOCH          = 2025-11-30T14:00:01.999872
MEAN_MOTION    = 15.45207403
ECCENTRICITY   = .00017386
INCLINATION    = 43.0001
RA_OF_ASC_NODE = 55.7597
ARG_OF_PERICENTER = 287.2740
MEAN_ANOMALY   = 174.1115

EPHEMERIS_TYPE = 0
CLASSIFICATION_TYPE = U
NORAD_CAT_ID   = 66343
ELEMENT_SET_NO = 999
REV_AT_EPOCH   = 497
BSTAR          = -.47513904E-1
MEAN_MOTION_DOT = -.2054061E-1
MEAN_MOTION_DDOT = 0

