STARLINK-35322          
1 66332U 25253P   25334.56693890  .00094025  00000+0  15887-2 0  9990
2 66332  43.0002  55.8793 0001079 277.4614  82.6124 15.50591411  5040
STARLINK-35400          
1 66333U 25253Q   25334.56556502  .00114128  00000+0  19212-2 0  9992
2 66333  43.0002  55.8675 0001325 267.8366  92.2342 15.50605163  5040
STARLINK-35407          
1 66334U 25253R   25334.63100844  .00110787  00000+0  18660-2 0  9998
2 66334  43.0002  55.5009 0001444 276.8399  83.2297 15.50603633  5057
STARLINK-35417          
1 66335U 25253S   25334.58335648  .00071509  00000+0  17060-2 0  9996
2 66335  43.0003  55.8636 0001288 286.9467 132.7996 15.40649204  4971
STARLINK-35404          
1 66336U 25253T   25334.62929503  .00099786  00000+0  16844-2 0  9997
2 66336  43.0001  55.4863 0001468 276.5617  83.5076 15.50591172  5053
STARLINK-34783          
1 66337U 25253U   25334.58335648 -.02047860  00000+0 -52279-1 0  9995
2 66337  43.0004  55.8059 0001712 276.6994 166.8995 15.42316508  5020
STARLINK-35477          
1 66338U 25253V   25334.58335648  .00062884  00000+0  15040-2 0  9991
2 66338  43.0000  55.8938 0000449 287.1069 120.1839 15.40624444  5073
STARLINK-35443          
1 66339U 25253W   25334.56247610  .00075679  00000+0  12824-2 0  9994
2 66339  43.0000  55.8425 0001641 282.2617  77.8060 15.50599296  5043
STARLINK-35218          
1 66340U 25253X   25334.62895162  .00089299  00000+0  15098-2 0  9993
2 66340  43.0002  55.4833 0001549 276.0201  84.0482 15.50594857  5050
STARLINK-35522          
1 66341U 25253Y   25334.56590643  .00121621  00000+0  20440-2 0  9996
2 66341  42.9998  55.8723 0001113 266.4147  93.6585 15.50617906  5044
STARLINK-35535          
1 66342U 25253Z   25334.62734991 -.00282824  00000+0 -51140-2 0  9996
2 66342  42.9999  55.4687 0000628 348.9889  11.0957 15.49899328  5056
STARLINK-35467          
1 66343U 25253AA  25334.58335648 -.02054061  00000+0 -47514-1 0  9999
2 66343  43.0001  55.7597 0001738 287.2740 174.1115 15.45207403  4970
